     2.11           NAVIGATION DATA     GPS(GPS)            RINEX VERSION / TYPE
cnvtToRINEX 3.14.0  convertToRINEX OPR  20220721 172755 UTC PGM / RUN BY / DATE 
----------------------------------------------------------- COMMENT             
    0.1676D-07  0.2235D-07 -0.1192D-06 -0.1192D-06          ION ALPHA           
    0.1106D+06  0.9830D+05 -0.1311D+06 -0.1966D+06          ION BETA            
    0.186264514923D-08 0.976996261670D-14    61440     2208 DELTA-UTC: A0,A1,T,W
    18                                                      LEAP SECONDS        
                                                            END OF HEADER       
17 22 05 05 23 59 44.0 0.609084963799D-03 0.466116034659D-11 0.000000000000D+00
    0.100000000000D+01 0.466562500000D+02 0.428160691754D-08-0.303899041426D+00
    0.224448740482D-05 0.135166156106D-01 0.330805778503D-05 0.515354580307D+04
    0.431984000000D+06-0.199303030968D-06 0.199532762961D+01 0.521540641785D-07
    0.978793507958D+00 0.329250000000D+03-0.149456772821D+01-0.829427406124D-08
    0.195365280605D-09 0.100000000000D+01 0.220800000000D+04 0.000000000000D+00
    0.200000000000D+01 0.000000000000D+00-0.111758708954D-07 0.100000000000D+01
    0.425316000000D+06 0.400000000000D+01 0.000000000000D+00 0.000000000000D+00
 5 22 05 06 00 00  0.0-0.807982869446D-04-0.136424205266D-11 0.000000000000D+00
    0.157000000000D+03-0.709375000000D+02 0.450125892407D-08 0.208151170172D+00
   -0.345334410667D-05 0.595802150201D-02 0.876747071743D-05 0.515371866226D+04
    0.432000000000D+06-0.204890966415D-07-0.229708702315D+01 0.204890966415D-07
    0.960583735688D+00 0.208062500000D+03 0.101554725028D+01-0.803604901941D-08
    0.123576576032D-09 0.100000000000D+01 0.220800000000D+04 0.000000000000D+00
    0.200000000000D+01 0.000000000000D+00-0.111758708954D-07 0.157000000000D+03
    0.429138000000D+06 0.400000000000D+01 0.000000000000D+00 0.000000000000D+00
13 22 05 06 00 00  0.0 0.306410714984D-03 0.670752342558D-11 0.000000000000D+00
    0.800000000000D+01-0.896875000000D+01 0.459340561950D-08-0.702046457224D+00
   -0.547617673874D-06 0.588451558724D-02 0.666454434395D-05 0.515366756630D+04
    0.432000000000D+06-0.149011611938D-07-0.107339857833D+01 0.150874257088D-06
    0.968366537405D+00 0.252812500000D+03 0.922374269916D+00-0.798997567170D-08
    0.892894335490D-11 0.100000000000D+01 0.220800000000D+04 0.000000000000D+00
    0.200000000000D+01 0.000000000000D+00-0.116415321827D-07 0.800000000000D+01
    0.429168000000D+06 0.400000000000D+01 0.000000000000D+00 0.000000000000D+00
14 22 05 06 00 00  0.0-0.106833875179D-03-0.204636307899D-11 0.000000000000D+00
    0.209000000000D+03 0.815312500000D+02 0.439982612756D-08 0.255256991006D+01
    0.429153442383D-05 0.181566807441D-02 0.799074769020D-05 0.515366317368D+04
    0.432000000000D+06-0.111758708954D-07 0.924425411263D+00 0.149011611938D-07
    0.952980436946D+00 0.218531250000D+03 0.307591596608D+01-0.792747306822D-08
   -0.575023952056D-10 0.100000000000D+01 0.220800000000D+04 0.000000000000D+00
    0.200000000000D+01 0.000000000000D+00-0.791624188423D-08 0.209000000000D+03
    0.431718000000D+06 0.400000000000D+01 0.000000000000D+00 0.000000000000D+00
